[
  {
    "OBJECT_NAME": "STARLINK-32437",
    "OBJECT_ID": "25031W",
    "EPOCH": "2025-11-11T02:25:50.963520",
    "MEAN_MOTION": 15.27631618,
    "ECCENTRICITY": 0.000111,
    "INCLINATION": 43.0024,
    "RA_OF_ASC_NODE": 93.4998,
    "ARG_OF_PERICENTER": 274.3837,
    "MEAN_ANOMALY": 85.6888,
    "EPHEMERIS_TYPE": 0,
    "CLASSIFICATION_TYPE": "U",
    "NORAD_CAT_ID": 63001,
    "ELEMENT_SET_NO": 999,
    "REV_AT_EPOCH": 4295,
    "BSTAR": 0.0012576000000000002,
    "MEAN_MOTION_DOT": 0.0003456,
    "MEAN_MOTION_DDOT": 0.0,
    "TLE_LINE1": "1 63001U 25031W   25315.10128430  .00034560  00000+0  12576-2 0  9996",
    "TLE_LINE2": "2 63001  43.0024  93.4998 0001110 274.3837  85.6888 15.27631618 42957",
    "COMMENT": "Grouped by shell and plane from TLE"
  },
  {
    "OBJECT_NAME": "STARLINK-32772",
    "OBJECT_ID": "25034E",
    "EPOCH": "2025-11-10T15:54:44.740512",
    "MEAN_MOTION": 15.30219445,
    "ECCENTRICITY": 0.0001891,
    "INCLINATION": 53.1557,
    "RA_OF_ASC_NODE": 90.9721,
    "ARG_OF_PERICENTER": 91.9955,
    "MEAN_ANOMALY": 268.1262,
    "EPHEMERIS_TYPE": 0,
    "CLASSIFICATION_TYPE": "U",
    "NORAD_CAT_ID": 63033,
    "ELEMENT_SET_NO": 999,
    "REV_AT_EPOCH": 4086,
    "BSTAR": 0.00097359,
    "MEAN_MOTION_DOT": 0.00028605,
    "MEAN_MOTION_DDOT": 0.0,
    "TLE_LINE1": "1 63033U 25034E   25314.66301783  .00028605  00000+0  97359-3 0  9994",
    "TLE_LINE2": "2 63033  53.1557  90.9721 0001891  91.9955 268.1262 15.30219445 40867",
    "COMMENT": "Grouped by shell and plane from TLE"
  },
  {
    "OBJECT_NAME": "STARLINK-32830",
    "OBJECT_ID": "25034F",
    "EPOCH": "2025-11-10T16:00:49.599072",
    "MEAN_MOTION": 15.30214097,
    "ECCENTRICITY": 0.0001345,
    "INCLINATION": 53.1578,
    "RA_OF_ASC_NODE": 90.9963,
    "ARG_OF_PERICENTER": 87.1588,
    "MEAN_ANOMALY": 272.9567,
    "EPHEMERIS_TYPE": 0,
    "CLASSIFICATION_TYPE": "U",
    "NORAD_CAT_ID": 63034,
    "ELEMENT_SET_NO": 999,
    "REV_AT_EPOCH": 4086,
    "BSTAR": 0.0016736000000000001,
    "MEAN_MOTION_DOT": 0.00049562,
    "MEAN_MOTION_DDOT": 0.0,
    "TLE_LINE1": "1 63034U 25034F   25314.66724073  .00049562  00000+0  16736-2 0  9990",
    "TLE_LINE2": "2 63034  53.1578  90.9963 0001345  87.1588 272.9567 15.30214097 40861",
    "COMMENT": "Grouped by shell and plane from TLE"
  },
  {
    "OBJECT_NAME": "STARLINK-32801",
    "OBJECT_ID": "25034G",
    "EPOCH": "2025-11-10T16:23:37.162464",
    "MEAN_MOTION": 15.30216342,
    "ECCENTRICITY": 0.0001391,
    "INCLINATION": 53.155,
    "RA_OF_ASC_NODE": 91.0954,
    "ARG_OF_PERICENTER": 310.1405,
    "MEAN_ANOMALY": 49.9474,
    "EPHEMERIS_TYPE": 0,
    "CLASSIFICATION_TYPE": "U",
    "NORAD_CAT_ID": 63035,
    "ELEMENT_SET_NO": 999,
    "REV_AT_EPOCH": 4085,
    "BSTAR": 0.0014318,
    "MEAN_MOTION_DOT": 0.0004231,
    "MEAN_MOTION_DDOT": 0.0,
    "TLE_LINE1": "1 63035U 25034G   25314.68306901  .00042310  00000+0  14318-2 0  9997",
    "TLE_LINE2": "2 63035  53.1550  91.0954 0001391 310.1405  49.9474 15.30216342 40855",
    "COMMENT": "Grouped by shell and plane from TLE"
  },
  {
    "OBJECT_NAME": "STARLINK-32818",
    "OBJECT_ID": "25034H",
    "EPOCH": "2025-11-10T16:06:54.245088",
    "MEAN_MOTION": 15.30209276,
    "ECCENTRICITY": 0.0001116,
    "INCLINATION": 53.1572,
    "RA_OF_ASC_NODE": 91.0266,
    "ARG_OF_PERICENTER": 79.3671,
    "MEAN_ANOMALY": 280.7455,
    "EPHEMERIS_TYPE": 0,
    "CLASSIFICATION_TYPE": "U",
    "NORAD_CAT_ID": 63036,
    "ELEMENT_SET_NO": 999,
    "REV_AT_EPOCH": 4086,
    "BSTAR": 0.0010328,
    "MEAN_MOTION_DOT": 0.00030364,
    "MEAN_MOTION_DDOT": 0.0,
    "TLE_LINE1": "1 63036U 25034H   25314.67146117  .00030364  00000+0  10328-2 0  9991",
    "TLE_LINE2": "2 63036  53.1572  91.0266 0001116  79.3671 280.7455 15.30209276 40863",
    "COMMENT": "Grouped by shell and plane from TLE"
  },
  {
    "OBJECT_NAME": "STARLINK-32812",
    "OBJECT_ID": "25034K",
    "EPOCH": "2025-11-10T16:12:58.862592",
    "MEAN_MOTION": 15.3022322,
    "ECCENTRICITY": 0.0001215,
    "INCLINATION": 53.1569,
    "RA_OF_ASC_NODE": 91.0444,
    "ARG_OF_PERICENTER": 75.6321,
    "MEAN_ANOMALY": 284.4815,
    "EPHEMERIS_TYPE": 0,
    "CLASSIFICATION_TYPE": "U",
    "NORAD_CAT_ID": 63038,
    "ELEMENT_SET_NO": 999,
    "REV_AT_EPOCH": 4086,
    "BSTAR": 0.0014105,
    "MEAN_MOTION_DOT": 0.00041681,
    "MEAN_MOTION_DDOT": 0.0,
    "TLE_LINE1": "1 63038U 25034K   25314.67568128  .00041681  00000+0  14105-2 0  9994",
    "TLE_LINE2": "2 63038  53.1569  91.0444 0001215  75.6321 284.4815 15.30223220 40866",
    "COMMENT": "Grouped by shell and plane from TLE"
  },
  {
    "OBJECT_NAME": "STARLINK-32811",
    "OBJECT_ID": "25034L",
    "EPOCH": "2025-11-10T20:58:10.526016",
    "MEAN_MOTION": 15.30195591,
    "ECCENTRICITY": 0.0001274,
    "INCLINATION": 53.1573,
    "RA_OF_ASC_NODE": 90.1533,
    "ARG_OF_PERICENTER": 79.52,
    "MEAN_ANOMALY": 280.5944,
    "EPHEMERIS_TYPE": 0,
    "CLASSIFICATION_TYPE": "U",
    "NORAD_CAT_ID": 63039,
    "ELEMENT_SET_NO": 999,
    "REV_AT_EPOCH": 4089,
    "BSTAR": 0.0011981000000000001,
    "MEAN_MOTION_DOT": 0.00035289,
    "MEAN_MOTION_DDOT": 0.0,
    "TLE_LINE1": "1 63039U 25034L   25314.87373294  .00035289  00000+0  11981-2 0  9991",
    "TLE_LINE2": "2 63039  53.1573  90.1533 0001274  79.5200 280.5944 15.30195591 40897",
    "COMMENT": "Grouped by shell and plane from TLE"
  },
  {
    "OBJECT_NAME": "STARLINK-32832",
    "OBJECT_ID": "25034M",
    "EPOCH": "2025-11-10T15:56:16.014336",
    "MEAN_MOTION": 15.30219314,
    "ECCENTRICITY": 0.0001089,
    "INCLINATION": 53.1593,
    "RA_OF_ASC_NODE": 90.9759,
    "ARG_OF_PERICENTER": 79.0602,
    "MEAN_ANOMALY": 281.0521,
    "EPHEMERIS_TYPE": 0,
    "CLASSIFICATION_TYPE": "U",
    "NORAD_CAT_ID": 63040,
    "ELEMENT_SET_NO": 999,
    "REV_AT_EPOCH": 4086,
    "BSTAR": 0.0013041,
    "MEAN_MOTION_DOT": 0.00038487,
    "MEAN_MOTION_DDOT": 0.0,
    "TLE_LINE1": "1 63040U 25034M   25314.66407424  .00038487  00000+0  13041-2 0  9995",
    "TLE_LINE2": "2 63040  53.1593  90.9759 0001089  79.0602 281.0521 15.30219314 40868",
    "COMMENT": "Grouped by shell and plane from TLE"
  },
  {
    "OBJECT_NAME": "STARLINK-32820",
    "OBJECT_ID": "25034N",
    "EPOCH": "2025-11-10T19:13:29.328960",
    "MEAN_MOTION": 15.30219213,
    "ECCENTRICITY": 9.56e-05,
    "INCLINATION": 53.1599,
    "RA_OF_ASC_NODE": 90.4066,
    "ARG_OF_PERICENTER": 76.6659,
    "MEAN_ANOMALY": 283.4448,
    "EPHEMERIS_TYPE": 0,
    "CLASSIFICATION_TYPE": "U",
    "NORAD_CAT_ID": 63041,
    "ELEMENT_SET_NO": 999,
    "REV_AT_EPOCH": 4088,
    "BSTAR": 0.0019673,
    "MEAN_MOTION_DOT": 0.00058399,
    "MEAN_MOTION_DDOT": 0.0,
    "TLE_LINE1": "1 63041U 25034N   25314.80103390  .00058399  00000+0  19673-2 0  9998",
    "TLE_LINE2": "2 63041  53.1599  90.4066 0000956  76.6659 283.4448 15.30219213 40882",
    "COMMENT": "Grouped by shell and plane from TLE"
  },
  {
    "OBJECT_NAME": "STARLINK-32590",
    "OBJECT_ID": "25034U",
    "EPOCH": "2025-11-10T09:52:12.909792",
    "MEAN_MOTION": 15.30232884,
    "ECCENTRICITY": 8.89e-05,
    "INCLINATION": 53.1563,
    "RA_OF_ASC_NODE": 92.2433,
    "ARG_OF_PERICENTER": 13.304,
    "MEAN_ANOMALY": 346.7984,
    "EPHEMERIS_TYPE": 0,
    "CLASSIFICATION_TYPE": "U",
    "NORAD_CAT_ID": 63047,
    "ELEMENT_SET_NO": 999,
    "REV_AT_EPOCH": 4081,
    "BSTAR": 0.0020652,
    "MEAN_MOTION_DOT": 0.00061376,
    "MEAN_MOTION_DDOT": 0.0,
    "TLE_LINE1": "1 63047U 25034U   25314.41126053  .00061376  00000+0  20652-2 0  9990",
    "TLE_LINE2": "2 63047  53.1563  92.2433 0000889  13.3040 346.7984 15.30232884 40814",
    "COMMENT": "Grouped by shell and plane from TLE"
  },
  {
    "OBJECT_NAME": "STARLINK-33635",
    "OBJECT_ID": "25035P",
    "EPOCH": "2025-11-11T02:26:56.427936",
    "MEAN_MOTION": 15.27604835,
    "ECCENTRICITY": 5.48e-05,
    "INCLINATION": 43.0022,
    "RA_OF_ASC_NODE": 96.7715,
    "ARG_OF_PERICENTER": 286.2809,
    "MEAN_ANOMALY": 73.7983,
    "EPHEMERIS_TYPE": 0,
    "CLASSIFICATION_TYPE": "U",
    "NORAD_CAT_ID": 63065,
    "ELEMENT_SET_NO": 999,
    "REV_AT_EPOCH": 4159,
    "BSTAR": 0.0008406500000000001,
    "MEAN_MOTION_DOT": 0.0002296,
    "MEAN_MOTION_DDOT": 0.0,
    "TLE_LINE1": "1 63065U 25035P   25315.10204199  .00022960  00000+0  84065-3 0  9991",
    "TLE_LINE2": "2 63065  43.0022  96.7715 0000548 286.2809  73.7983 15.27604835 41597",
    "COMMENT": "Grouped by shell and plane from TLE"
  },
  {
    "OBJECT_NAME": "STARLINK-33622",
    "OBJECT_ID": "25035Q",
    "EPOCH": "2025-11-11T02:01:02.109216",
    "MEAN_MOTION": 15.27610184,
    "ECCENTRICITY": 0.0002403,
    "INCLINATION": 43.0008,
    "RA_OF_ASC_NODE": 96.6285,
    "ARG_OF_PERICENTER": 282.0197,
    "MEAN_ANOMALY": 78.0385,
    "EPHEMERIS_TYPE": 0,
    "CLASSIFICATION_TYPE": "U",
    "NORAD_CAT_ID": 63066,
    "ELEMENT_SET_NO": 999,
    "REV_AT_EPOCH": 4159,
    "BSTAR": 0.0013903,
    "MEAN_MOTION_DOT": 0.00038231,
    "MEAN_MOTION_DDOT": 0.0,
    "TLE_LINE1": "1 63066U 25035Q   25315.08405219  .00038231  00000+0  13903-2 0  9995",
    "TLE_LINE2": "2 63066  43.0008  96.6285 0002403 282.0197  78.0385 15.27610184 41597",
    "COMMENT": "Grouped by shell and plane from TLE"
  },
  {
    "OBJECT_NAME": "STARLINK-33628",
    "OBJECT_ID": "25035R",
    "EPOCH": "2025-11-11T02:52:51.418848",
    "MEAN_MOTION": 15.27594513,
    "ECCENTRICITY": 4.99e-05,
    "INCLINATION": 42.9984,
    "RA_OF_ASC_NODE": 96.905,
    "ARG_OF_PERICENTER": 341.3379,
    "MEAN_ANOMALY": 18.7454,
    "EPHEMERIS_TYPE": 0,
    "CLASSIFICATION_TYPE": "U",
    "NORAD_CAT_ID": 63067,
    "ELEMENT_SET_NO": 999,
    "REV_AT_EPOCH": 4159,
    "BSTAR": 0.00080616,
    "MEAN_MOTION_DOT": 0.00021998,
    "MEAN_MOTION_DDOT": 0.0,
    "TLE_LINE1": "1 63067U 25035R   25315.12003957  .00021998  00000+0  80616-3 0  9992",
    "TLE_LINE2": "2 63067  42.9984  96.9050 0000499 341.3379  18.7454 15.27594513 41591",
    "COMMENT": "Grouped by shell and plane from TLE"
  }
]